      2.10          N: GNSS NAV DATA                        RINEX VERSION / TYPE
fic2rin                                 10/10/2024 00:59:02 PGM / RUN BY / DATE
                                                            END OF HEADER
3  24 10  9  1 59 44.0  .564313493669D-03  .121644916362D-10  .000000000000D+00
     .720000000000D+02 -.847187500000D+02  .357872049664D-08 -.240985114057D+01
    -.424869358540D-05  .569687678944D-02  .808760523796D-05  .515365336227D+04
     .266384000000D+06  .931322574615D-08  .693158608153D+00 -.596046447754D-07
     .986427465075D+00  .237000000000D+03  .116468779273D+01 -.751959893576D-08
     .871464871438D-10  .100000000000D+01  .233500000000D+04  .000000000000D+00
     .240000000000D+01  .000000000000D+00  .139698386192D-08  .720000000000D+02
     .259200000000D+06  .400000000000D+01
19 24 10  9 10  0  0.0  .548306852579D-03  .477484718431D-11  .000000000000D+00
     .155000000000D+03  .705625000000D+02  .451625954891D-08  .732510671461D+00
     .371038913727D-05  .996956485324D-02  .552088022232D-05  .515374143410D+04
     .295200000000D+06  .188127160072D-06 -.130188752091D+01 -.987201929092D-07
     .965848419441D+00  .274625000000D+03  .266164302812D+01 -.814141055100D-08
     .942896418278D-10  .100000000000D+01  .233500000000D+04  .000000000000D+00
     .240000000000D+01  .000000000000D+00 -.153668224812D-07  .155000000000D+03
     .288000000000D+06  .400000000000D+01
18 24 10  9 10  0  0.0 -.657277647406D-03 -.147792889038D-11  .000000000000D+00
     .900000000000D+01 -.187812500000D+02  .432875173846D-08 -.309279977134D+01
    -.854954123497D-06  .475323724095D-02  .355392694473D-05  .515373517990D+04
     .295200000000D+06 -.614672899246D-07 -.340265305027D+00 -.763684511185D-07
     .974591505454D+00  .321687500000D+03 -.298153712721D+01 -.803283459980D-08
     .164292557730D-10  .100000000000D+01  .233500000000D+04  .000000000000D+00
     .240000000000D+01  .000000000000D+00 -.838190317154D-08  .521000000000D+03
     .288000000000D+06  .400000000000D+01
23 24 10  9 10  0  0.0  .337823759764D-03  .818545231596D-11  .000000000000D+00
     .200000000000D+02 -.799687500000D+02  .405088302125D-08  .203603584139D+01
    -.406429171562D-05  .478553667199D-02  .719539821148D-05  .515361900330D+04
     .295200000000D+06 -.894069671631D-07  .660762568167D+00  .163912773132D-06
     .981210608503D+00  .252968750000D+03 -.293826175021D+01 -.785711299458D-08
     .214294640518D-10  .100000000000D+01  .233500000000D+04  .000000000000D+00
     .240000000000D+01  .000000000000D+00 -.838190317154D-08  .788000000000D+03
     .288000000000D+06  .400000000000D+01
28 24 10  9 10  0  0.0 -.439797993749D-03 -.130739863380D-10  .000000000000D+00
     .550000000000D+02 -.868750000000D+01  .459554856590D-08  .121514040089D+01
    -.499188899994D-06  .436837202869D-03  .752322375774D-05  .515372635269D+04
     .295200000000D+06  .745058059692D-07  .275104586232D+01 -.186264514923D-07
     .961673025953D+00  .237875000000D+03  .140662129478D+01 -.790318634229D-08
    -.144648882349D-09  .100000000000D+01  .233500000000D+04  .000000000000D+00
     .240000000000D+01  .000000000000D+00 -.931322574615D-08  .567000000000D+03
     .288000000000D+06  .400000000000D+01
6  24 10  9  9 59 44.0 -.257994979620D-04 -.272848410532D-10  .000000000000D+00
     .310000000000D+02 -.743750000000D+01  .405302596766D-08 -.300671851458D+01
    -.262632966042D-06  .310752040241D-02  .346638262272D-05  .515370900345D+04
     .295184000000D+06 -.428408384323D-07 -.342419944902D+00  .819563865662D-07
     .989725727992D+00  .326968750000D+03 -.765475940185D+00 -.788068540504D-08
     .414302971667D-10  .100000000000D+01  .233500000000D+04  .000000000000D+00
     .240000000000D+01  .000000000000D+00  .372529029846D-08  .310000000000D+02
     .291870000000D+06  .400000000000D+01
29 24 10  9  9 59 44.0 -.572486314923D-03  .261479726760D-11  .000000000000D+00
     .900000000000D+01  .781875000000D+02  .434839541384D-08 -.120019057918D+01
     .378116965294D-05  .289135787170D-02  .498630106449D-05  .515376257515D+04
     .295184000000D+06 -.130385160446D-07 -.133079456418D+01 -.167638063431D-07
     .969111364590D+00  .290406250000D+03  .268173553792D+01 -.804140638542D-08
     .110361739867D-09  .100000000000D+01  .233500000000D+04  .000000000000D+00
     .240000000000D+01  .000000000000D+00 -.977888703346D-08  .900000000000D+01
     .292200000000D+06  .400000000000D+01
7  24 10  9  9 59 44.0 -.293352641165D-04  .352429196937D-11  .000000000000D+00
     .200000000000D+02 -.107812500000D+02  .471733935326D-08  .236906499768D+01
    -.821426510811D-06  .187643222744D-01  .738166272640D-05  .515359738159D+04
     .295184000000D+06  .949949026108D-07  .278257204975D+01 -.344589352608D-06
     .950618859994D+00  .228875000000D+03 -.209886311412D+01 -.773175062988D-08
    -.464305054455D-10  .100000000000D+01  .233500000000D+04  .000000000000D+00
     .240000000000D+01  .000000000000D+00 -.107102096081D-07  .200000000000D+02
     .292950000000D+06  .400000000000D+01
6  24 10  9 11 59 44.0 -.259960070252D-04 -.272848410532D-10  .000000000000D+00
     .320000000000D+02 -.268750000000D+01  .403409660774D-08 -.195641036604D+01
    -.335276126862D-07  .310749560595D-02  .350177288055D-05  .515370957947D+04
     .302384000000D+06 -.137835741043D-06 -.342476890451D+00  .689178705215D-07
     .989725714826D+00  .330375000000D+03 -.765627887635D+00 -.795211695188D-08
     .450018745087D-10  .100000000000D+01  .233500000000D+04  .000000000000D+00
     .240000000000D+01  .000000000000D+00  .372529029846D-08  .320000000000D+02
     .295200000000D+06  .400000000000D+01
7  24 10  9 11 59 44.0 -.293096527457D-04  .352429196937D-11  .000000000000D+00
     .210000000000D+02 -.809375000000D+01  .471698219553D-08 -.286389430234D+01
    -.482425093651D-06  .187639585929D-01  .737421214581D-05  .515359805107D+04
     .302384000000D+06  .180676579475D-06  .278251696650D+01 -.182539224625D-06
     .950618647871D+00  .228218750000D+03 -.209886045600D+01 -.766460497585D-08
    -.442875590403D-10  .100000000000D+01  .233500000000D+04  .000000000000D+00
     .240000000000D+01  .000000000000D+00 -.107102096081D-07  .210000000000D+02
     .295200000000D+06  .400000000000D+01
29 24 10  9 11 59 44.0 -.572467222810D-03  .261479726760D-11  .000000000000D+00
     .100000000000D+02  .723750000000D+02  .421160400164D-08 -.149714993808D+00
     .377371907234D-05  .289232842624D-02  .511854887009D-05  .515376520538D+04
     .302384000000D+06  .223517417908D-07 -.133085236554D+01 -.260770320892D-07
     .969112025829D+00  .281781250000D+03  .268138364760D+01 -.805604985253D-08
     .846463830045D-10  .100000000000D+01  .233500000000D+04  .000000000000D+00
     .240000000000D+01  .000000000000D+00 -.977888703346D-08  .100000000000D+02
     .295200000000D+06  .400000000000D+01
2  24 10  9 12  0  0.0 -.340845901519D-03  .818545231596D-11  .000000000000D+00
     .900000000000D+02  .228125000000D+01  .461733518769D-08  .101131822329D+00
    -.484287738800D-07  .162137630396D-01  .334158539772D-05  .515368527603D+04
     .302400000000D+06 -.130385160446D-06 -.443752264543D+00 -.253319740295D-06
     .967052093807D+00  .321375000000D+03 -.112145291663D+01 -.855499920720D-08
     .296440919383D-10  .100000000000D+01  .233500000000D+04  .000000000000D+00
     .240000000000D+01  .000000000000D+00 -.176951289177D-07  .900000000000D+02
     .295200000000D+06  .400000000000D+01
3  24 10  9 12  0  0.0  .564746093005D-03  .120508047985D-10  .000000000000D+00
     .820000000000D+02 -.940000000000D+02  .391837750187D-08  .284316752392D+01
    -.487081706524D-05  .569813943002D-02  .672973692417D-05  .515365085411D+04
     .302400000000D+06  .372529029846D-08  .692880570331D+00 -.126659870148D-06
     .986426724838D+00  .259843750000D+03  .116495150273D+01 -.769282043685D-08
     .328585115460D-10  .100000000000D+01  .233500000000D+04  .000000000000D+00
     .240000000000D+01  .000000000000D+00  .139698386192D-08  .820000000000D+02
     .295200000000D+06  .400000000000D+01
